COMMENT,ORIGINATOR,NORAD_CAT_ID,OBJECT_NAME,OBJECT_TYPE,CLASSIFICATION_TYPE,INTLDES,EPOCH,EPOCH_MICROSECONDS,MEAN_MOTION,ECCENTRICITY,INCLINATION,RA_OF_ASC_NODE,ARG_OF_PERICENTER,MEAN_ANOMALY,EPHEMERIS_TYPE,ELEMENT_SET_NO,REV_AT_EPOCH,BSTAR,MEAN_MOTION_DOT,MEAN_MOTION_DDOT,FILE,TLE_LINE0,TLE_LINE1,TLE_LINE2,OBJECT_ID,OBJECT_NUMBER,SEMIMAJOR_AXIS,PERIOD,APOGEE,PERIGEE,DECAYED
GENERATED VIA SPACETRACK.ORG API,18 SPCS,57309,STARLINK-30163,PAYLOAD,U,23096V,2025-05-06 13:47:07,315008,15.16993161,0.0012632,42.9976,83.1057,154.0925,206.0557,0,999,10058,0.0027831,0.0005631,0,4721167,0 STARLINK-30163,1 57309U 23096V   25126.57439022  .00056310  00000-0  27831-2 0  9990,2 57309  42.9976  83.1057 0012632 154.0925 206.0557 15.16993161100588,2023-096V,57309,6893.071,94.925,523.643,506.229,1
GENERATED VIA SPACETRACK.ORG API,18 SPCS,57309,STARLINK-30163,PAYLOAD,U,23096V,2025-05-06 13:47:07,315008,15.16993161,0.0012632,42.9976,83.1057,154.0925,206.0557,0,999,10061,0.0027831,0.0005631,0,4721313,0 STARLINK-30163,1 57309U 23096V   25126.57439022  .00056310  00000-0  27831-2 0  9990,2 57309  42.9976  83.1057 0012632 154.0925 206.0557 15.16993161100612,2023-096V,57309,6893.071,94.925,523.643,506.229,1
GENERATED VIA SPACETRACK.ORG API,18 SPCS,57309,STARLINK-30163,PAYLOAD,U,23096V,2025-05-07 21:23:18,220704,15.17143513,0.0012942,42.9993,75.7868,163.3974,196.7299,0,999,10078,0.0021972,0.00044531,0,4722054,0 STARLINK-30163,1 57309U 23096V   25127.89118311  .00044531  00000-0  21972-2 0  9993,2 57309  42.9993  75.7868 0012942 163.3974 196.7299 15.17143513100784,2023-096V,57309,6892.616,94.915,523.401,505.560,1
GENERATED VIA SPACETRACK.ORG API,18 SPCS,57309,STARLINK-30163,PAYLOAD,U,23096V,2025-05-08 05:17:19,173984,15.17180311,0.001312,42.9983,73.9562,165.4333,194.6895,0,999,10083,0.0026982,0.00054878,0,4722712,0 STARLINK-30163,1 57309U 23096V   25128.22036081  .00054878  00000-0  26982-2 0  9995,2 57309  42.9983  73.9562 0013120 165.4333 194.6895 15.17180311100837,2023-096V,57309,6892.504,94.913,523.412,505.326,1
GENERATED VIA SPACETRACK.ORG API,18 SPCS,57309,STARLINK-30163,PAYLOAD,U,23096V,2025-05-08 13:11:19,480992,15.17219342,0.0013314,42.9981,72.1275,167.4693,192.6488,0,999,10091,0.0028464,0.00057999,0,4723128,0 STARLINK-30163,1 57309U 23096V   25128.54953103  .00057999  00000-0  28464-2 0  9997,2 57309  42.9981  72.1275 0013314 167.4693 192.6488 15.17219342100915,2023-096V,57309,6892.386,94.910,523.428,505.075,1
GENERATED VIA SPACETRACK.ORG API,18 SPCS,57309,STARLINK-30163,PAYLOAD,U,23096V,2025-05-09 04:59:17,921184,15.17296634,0.0013543,42.9982,68.4667,172.0748,188.0316,0,999,10098,0.0033084,0.00067696,0,4723542,0 STARLINK-30163,1 57309U 23096V   25129.20784631  .00067696  00000-0  33084-2 0  9998,2 57309  42.9982  68.4667 0013543 172.0748 188.0316 15.17296634100981,2023-096V,57309,6892.152,94.906,523.351,504.683,1
GENERATED VIA SPACETRACK.ORG API,18 SPCS,57309,STARLINK-30163,PAYLOAD,U,23096V,2025-05-09 04:59:17,921184,15.17296634,0.0013543,42.9982,68.4667,172.0748,188.0316,0,999,10101,0.0033084,0.00067696,0,4723738,0 STARLINK-30163,1 57309U 23096V   25129.20784631  .00067696  00000-0  33084-2 0  9998,2 57309  42.9982  68.4667 0013543 172.0748 188.0316 15.17296634101016,2023-096V,57309,6892.152,94.906,523.351,504.683,1
GENERATED VIA SPACETRACK.ORG API,18 SPCS,57309,STARLINK-30163,PAYLOAD,U,23096V,2025-05-10 04:41:10,224672,15.1741681,0.0013861,42.9986,62.9769,178.3727,181.7168,0,999,10113,0.0037954,0.00078085,0,4724084,0 STARLINK-30163,1 57309U 23096V   25130.19525723  .00078085  00000-0  37954-2 0  9997,2 57309  42.9986  62.9769 0013861 178.3727 181.7168 15.17416810101139,2023-096V,57309,6891.788,94.898,523.206,504.100,1
GENERATED VIA SPACETRACK.ORG API,18 SPCS,57309,STARLINK-30163,PAYLOAD,U,23096V,2025-05-10 12:35:06,139104,15.17452806,0.0013867,42.9985,61.1478,180.2274,179.8569,0,999,10118,0.0026731,0.00054807,0,4724495,0 STARLINK-30163,1 57309U 23096V   25130.52437661  .00054807  00000-0  26731-2 0  9994,2 57309  42.9985  61.1478 0013867 180.2274 179.8569 15.17452806101184,2023-096V,57309,6891.679,94.896,523.101,503.987,1
GENERATED VIA SPACETRACK.ORG API,18 SPCS,57309,STARLINK-30163,PAYLOAD,U,23096V,2025-05-10 12:35:06,139104,15.17452806,0.0013867,42.9985,61.1478,180.2274,179.8569,0,999,10121,0.0026731,0.00054807,0,4724659,0 STARLINK-30163,1 57309U 23096V   25130.52437661  .00054807  00000-0  26731-2 0  9994,2 57309  42.9985  61.1478 0013867 180.2274 179.8569 15.17452806101218,2023-096V,57309,6891.679,94.896,523.101,503.987,1
GENERATED VIA SPACETRACK.ORG API,18 SPCS,57309,STARLINK-30163,PAYLOAD,U,23096V,2025-05-10 22:03:48,281184,15.17496031,0.001395,42.9987,58.951,182.9665,177.1102,0,999,10127,0.0023534,0.00048242,0,4724992,0 STARLINK-30163,1 57309U 23096V   25130.91930881  .00048242  00000-0  23534-2 0  9993,2 57309  42.9987  58.9510 0013950 182.9665 177.1102 15.17496031101275,2023-096V,57309,6891.548,94.893,523.027,503.800,1
GENERATED VIA SPACETRACK.ORG API,18 SPCS,57309,STARLINK-30163,PAYLOAD,U,23096V,2025-05-11 04:22:55,857216,15.175216,0.0014115,42.9986,57.4864,184.6681,175.4037,0,999,10131,0.0025334,0.00052018,0,4725669,0 STARLINK-30163,1 57309U 23096V   25131.18259094  .00052018  00000-0  25334-2 0  9999,2 57309  42.9986  57.4864 0014115 184.6681 175.4037 15.17521600101315,2023-096V,57309,6891.471,94.892,523.063,503.608,1
GENERATED VIA SPACETRACK.ORG API,18 SPCS,57309,STARLINK-30163,PAYLOAD,U,23096V,2025-05-12 04:04:35,472000,15.17634633,0.0014409,42.9984,51.996,191.1671,168.8858,0,999,10143,0.0032457,0.00067073,0,4726083,0 STARLINK-30163,1 57309U 23096V   25132.16985500  .00067073  00000-0  32457-2 0  9997,2 57309  42.9984  51.9960 0014409 191.1671 168.8858 15.17634633101438,2023-096V,57309,6891.129,94.884,522.923,503.064,1
GENERATED VIA SPACETRACK.ORG API,18 SPCS,57309,STARLINK-30163,PAYLOAD,U,23096V,2025-05-12 11:58:27,316128,15.17669273,0.0014414,42.9985,50.1665,193.2559,166.7912,0,999,10151,0.0024853,0.00051244,0,4726624,0 STARLINK-30163,1 57309U 23096V   25132.49892727  .00051244  00000-0  24853-2 0  9995,2 57309  42.9985  50.1665 0014414 193.2559 166.7912 15.17669273101511,2023-096V,57309,6891.024,94.882,522.821,502.956,1
GENERATED VIA SPACETRACK.ORG API,18 SPCS,57309,STARLINK-30163,PAYLOAD,U,23096V,2025-05-12 11:58:27,316128,15.17669273,0.0014414,42.9985,50.1665,193.2559,166.7912,0,999,10148,0.0024853,0.00051244,0,4726811,0 STARLINK-30163,1 57309U 23096V   25132.49892727  .00051244  00000-0  24853-2 0  9995,2 57309  42.9985  50.1665 0014414 193.2559 166.7912 15.17669273101487,2023-096V,57309,6891.024,94.882,522.821,502.956,1
GENERATED VIA SPACETRACK.ORG API,18 SPCS,57309,STARLINK-30163,PAYLOAD,U,23096V,2025-05-12 23:01:50,630592,15.17725207,0.0014359,42.9967,47.605,196.5008,163.5374,0,999,10155,0.0025947,0.00053613,0,4727428,0 STARLINK-30163,1 57309U 23096V   25132.95961378  .00053613  00000-0  25947-2 0  9992,2 57309  42.9967  47.6050 0014359 196.5008 163.5374 15.17725207101554,2023-096V,57309,6890.854,94.879,522.614,502.825,1
GENERATED VIA SPACETRACK.ORG API,18 SPCS,57309,STARLINK-30163,PAYLOAD,U,23096V,2025-05-12 23:01:50,630592,15.17725207,0.0014359,42.9967,47.605,196.5008,163.5374,0,999,10158,0.0025947,0.00053613,0,4727647,0 STARLINK-30163,1 57309U 23096V   25132.95961378  .00053613  00000-0  25947-2 0  9992,2 57309  42.9967  47.6050 0014359 196.5008 163.5374 15.17725207101587,2023-096V,57309,6890.854,94.879,522.614,502.825,1
GENERATED VIA SPACETRACK.ORG API,18 SPCS,57309,STARLINK-30163,PAYLOAD,U,23096V,2025-05-13 19:33:47,40192,15.17828485,0.0014907,42.9983,42.843,201.8502,158.1711,0,999,10168,0.002791,0.00057905,0,4727745,0 STARLINK-30163,1 57309U 23096V   25133.81512778  .00057905  00000-0  27910-2 0  9994,2 57309  42.9983  42.8430 0014907 201.8502 158.1711 15.17828485101680,2023-096V,57309,6890.542,94.872,522.679,502.135,1
GENERATED VIA SPACETRACK.ORG API,18 SPCS,57309,STARLINK-30163,PAYLOAD,U,23096V,2025-05-13 19:33:47,40192,15.17828485,0.0014907,42.9983,42.843,201.8502,158.1711,0,999,10171,0.002791,0.00057905,0,4727914,0 STARLINK-30163,1 57309U 23096V   25133.81512778  .00057905  00000-0  27910-2 0  9994,2 57309  42.9983  42.8430 0014907 201.8502 158.1711 15.17828485101714,2023-096V,57309,6890.542,94.872,522.679,502.135,1
GENERATED VIA SPACETRACK.ORG API,18 SPCS,57309,STARLINK-30163,PAYLOAD,U,23096V,2025-05-14 00:18:04,95360,15.17848164,0.001487,42.9974,41.7456,203.1365,156.8815,0,999,10174,0.0029081,0.00060399,0,4728533,0 STARLINK-30163,1 57309U 23096V   25134.01254740  .00060399  00000-0  29081-2 0  9991,2 57309  42.9974  41.7456 0014870 203.1365 156.8815 15.17848164101740,2023-096V,57309,6890.482,94.871,522.593,502.101,1
GENERATED VIA SPACETRACK.ORG API,18 SPCS,57309,STARLINK-30163,PAYLOAD,U,23096V,2025-05-15 17:21:42,615360,15.18020182,0.0015375,42.9991,32.2252,214.1912,145.7947,0,999,10197,0.0024849,0.00051781,0,4729576,0 STARLINK-30163,1 57309U 23096V   25135.72340990  .00051781  00000-0  24849-2 0  9995,2 57309  42.9991  32.2252 0015375 214.1912 145.7947 15.18020182101970,2023-096V,57309,6889.962,94.860,522.420,501.233,1
GENERATED VIA SPACETRACK.ORG API,18 SPCS,57309,STARLINK-30163,PAYLOAD,U,23096V,2025-05-15 23:40:42,346272,15.18044172,0.0015467,42.9997,30.7605,215.0849,144.8981,0,999,10204,0.0024161,0.00050368,0,4730293,0 STARLINK-30163,1 57309U 23096V   25135.98660123  .00050368  00000-0  24161-2 0  9993,2 57309  42.9997  30.7605 0015467 215.0849 144.8981 15.18044172102044,2023-096V,57309,6889.889,94.859,522.411,501.098,1
GENERATED VIA SPACETRACK.ORG API,18 SPCS,57309,STARLINK-30163,PAYLOAD,U,23096V,2025-05-16 17:02:54,824064,15.18112214,0.0015605,42.9991,26.7321,220.1854,139.7841,0,999,10212,0.0022528,0.00047021,0,4730437,0 STARLINK-30163,1 57309U 23096V   25136.71035676  .00047021  00000-0  22528-2 0  9991,2 57309  42.9991  26.7321 0015605 220.1854 139.7841 15.18112214102125,2023-096V,57309,6889.683,94.855,522.300,500.797,1
